OBJECT_NAME,OBJECT_ID,EPOCH,MEAN_MOTION,ECCENTRICITY,INCLINATION,RA_OF_ASC_NODE,ARG_OF_PERICENTER,MEAN_ANOMALY,EPHEMERIS_TYPE,CLASSIFICATION_TYPE,NORAD_CAT_ID,ELEMENT_SET_NO,REV_AT_EPOCH,BSTAR,MEAN_MOTION_DOT,MEAN_MOTION_DDOT
SKYSAT-C1,2016-040C,2026-06-19T15:01:50.673216,15.36335182,.00032661,96.9557,202.2141,53.5654,306.5892,0,U,41601,999,55824,.21073112E-3,.7393E-4,0
LAPAN-A3,2016-040E,2026-06-19T22:22:44.716800,15.33119317,.00105556,97.1491,166.9879,16.5165,343.6420,0,U,41603,999,55523,.86472363E-4,.2695E-4,0
GAOFEN-3,2016-049A,2026-06-19T23:56:54.545856,14.42214866,.00014435,98.4010,178.7416,99.9993,260.1360,0,U,41727,999,51905,-.629601E-4,-.251E-5,0
SKYSAT-C4,2016-058B,2026-06-19T14:14:56.872320,15.48649020,.00015441,96.9170,192.2652,137.4873,222.6499,0,U,41771,999,54584,.26294475E-3,.13975E-3,0
SKYSAT-C5,2016-058C,2026-06-19T15:31:54.582528,15.34498754,.00009034,97.0465,211.1780,290.3567,69.7580,0,U,41772,999,54412,.18597341E-3,.614E-4,0
SKYSAT-C2,2016-058D,2026-06-19T14:17:22.067520,15.42115998,.00045105,97.0166,192.5998,65.5845,294.5873,0,U,41773,999,54542,.23080526E-3,.9799E-4,0
SKYSAT-C3,2016-058E,2026-06-19T15:46:03.426240,15.52629142,.00014111,96.9001,201.4082,100.4951,259.6462,0,U,41774,999,54649,.30576333E-3,.1874E-3,0
ALSAT-1B,2016-059C,2026-06-19T23:00:32.923296,14.72276335,.00082964,97.7747,179.6031,209.9883,150.0851,0,U,41785,999,52098,.38051826E-4,.193E-5,0
PATHFINDER 1,2016-059E,2026-06-19T22:21:45.809280,14.67665593,.00280076,97.8166,170.0842,194.6747,165.3648,0,U,41787,999,52011,.78647849E-4,.403E-5,0
SCATSAT 1,2016-059H,2026-06-19T18:47:49.797600,14.79530063,.00534718,98.1190,234.5762,238.9260,120.6697,0,U,41790,999,10197,.11507773E-3,.824E-5,0
GOKTURK 1A,2016-073A,2026-06-19T23:33:55.812672,14.62776707,.00014228,98.1245,65.6127,76.4847,283.6513,0,U,41875,999,50923,.83840555E-4,.381E-5,0
RESOURCESAT-2A,2016-074A,2026-06-19T22:57:18.438624,14.21617587,.00032901,98.7525,244.4385,79.6989,280.4559,0,U,41877,999,49469,.91573345E-4,.157E-5,0
CARTOSAT-2D,2017-008A,2026-06-19T22:11:40.839072,15.19218601,.00040127,97.4099,230.1800,222.6955,137.3968,0,U,41948,999,51799,.70822602E-4,.1424E-4,0
SENTINEL-2B,2017-013A,2026-06-19T22:26:03.703776,14.30817039,.000117,98.5688,245.6707,87.1725,272.9592,0,U,42063,999,48503,-.27483451E-4,-.116E-5,0
CARTOSAT-2E,2017-036C,2026-06-19T22:37:15.699648,15.19270118,.0002189,97.4269,230.6997,306.4426,53.6607,0,U,42767,999,49856,.11642916E-3,.2387E-4,0
FORMOSAT-5,2017-049A,2026-06-19T22:47:04.829280,14.50899686,.00126427,98.2254,246.1978,76.7144,283.5461,0,U,42920,999,46707,.37383518E-4,.104E-5,0
SENTINEL-5P,2017-064A,2026-06-19T16:03:12.165984,14.19519301,.00009923,98.7925,112.7826,87.0975,273.0314,0,U,42969,999,44991,.38841852E-4,.38E-6,0
SKYSAT-C11,2017-068A,2026-06-19T21:12:04.008672,15.58015103,.00004961,97.4362,319.8314,100.1711,259.9601,0,U,42987,999,48366,.33893467E-3,.25335E-3,0
SKYSAT-C10,2017-068B,2026-06-19T20:02:48.401952,15.34675476,.00011036,97.4514,307.7080,99.9249,260.2118,0,U,42988,999,48276,.22515766E-3,.7485E-4,0
SKYSAT-C9,2017-068C,2026-06-19T20:02:56.488128,15.41617674,.00094705,97.4434,308.6682,124.6971,235.5169,0,U,42989,999,48316,.26494689E-3,.11082E-3,0
SKYSAT-C8,2017-068D,2026-06-19T08:19:30.896832,15.37011151,.00014283,97.4531,307.0228,94.6460,265.4947,0,U,42990,999,48264,.24141092E-3,.8658E-4,0
SKYSAT-C7,2017-068E,2026-06-19T08:10:25.536576,15.36962434,.00072001,97.4542,308.0060,100.6043,259.6012,0,U,42991,999,48270,.25300398E-3,.9071E-4,0
SKYSAT-C6,2017-068F,2026-06-19T15:00:15.888096,15.34245695,.00045352,97.4577,308.2553,131.3931,228.7702,0,U,42992,999,48269,.22948328E-3,.7529E-4,0
CARTOSAT-2F,2018-004A,2026-06-19T23:23:42.039168,15.19230106,.00010102,97.4782,230.5822,195.2519,164.8686,0,U,43111,999,46775,.13566424E-3,.2789E-4,0
GAOFEN-1 02,2018-031A,2026-06-19T22:35:49.724736,14.76459800,.00036207,98.0522,233.4612,27.4126,332.7274,0,U,43259,999,44310,.95258223E-4,.611E-5,0
GAOFEN-1 03,2018-031B,2026-06-19T22:04:19.864704,14.76472254,.00036843,98.0517,233.2975,73.5437,286.6177,0,U,43260,999,44309,.81969164E-4,.519E-5,0
GAOFEN-1 04,2018-031D,2026-06-19T23:07:00.969024,14.76437491,.0002169,98.0523,233.5321,74.6952,285.4497,0,U,43262,999,44309,.74416435E-4,.466E-5,0
SENTINEL-3B,2018-039A,2026-06-19T18:49:42.233376,14.26735362,.00007281,98.6248,238.2796,93.3336,266.7928,0,U,43437,999,42449,.46883003E-4,.7E-6,0
GAOFEN-5 01,2018-043A,2026-06-19T20:53:25.750752,14.60607080,.00030269,98.4569,142.5129,79.1483,281.0057,0,U,43461,999,43208,.60680547E-4,.246E-5,0
GAOFEN-6,2018-048A,2026-06-19T22:00:50.119200,14.76598470,.00118187,97.9705,233.6295,157.0509,203.1232,0,U,43484,999,43379,-.33058525E-4,-.282E-5,0
