SKYSAT-C1               
1 41601U 16040C   26170.62628094  .00007393  00000+0  21073-3 0  9993
2 41601  96.9557 202.2141 0003266  53.5654 306.5892 15.36335182558246
LAPAN-A3                
1 41603U 16040E   26170.93246200  .00002695  00000+0  86472-4 0  9999
2 41603  97.1491 166.9879 0010555  16.5165 343.6420 15.33119317555239
GAOFEN-3                
1 41727U 16049A   26170.99785354 -.00000251  00000+0 -62960-4 0  9993
2 41727  98.4010 178.7416 0001443  99.9993 260.1360 14.42214866519055
SKYSAT-C4               
1 41771U 16058B   26170.59371380  .00013975  00000+0  26294-3 0  9992
2 41771  96.9170 192.2652 0001544 137.4873 222.6499 15.48649020545847
SKYSAT-C5               
1 41772U 16058C   26170.64715952  .00006140  00000+0  18597-3 0  9999
2 41772  97.0465 211.1780 0000903 290.3567  69.7580 15.34498754544129
SKYSAT-C2               
1 41773U 16058D   26170.59539430  .00009799  00000+0  23081-3 0  9996
2 41773  97.0166 192.5998 0004510  65.5845 294.5873 15.42115998545422
SKYSAT-C3               
1 41774U 16058E   26170.65698410  .00018740  00000+0  30576-3 0  9991
2 41774  96.9001 201.4082 0001411 100.4951 259.6462 15.52629142546493
ALSAT-1B                
1 41785U 16059C   26170.95871439  .00000193  00000+0  38052-4 0  9992
2 41785  97.7747 179.6031 0008296 209.9883 150.0851 14.72276335520983
PATHFINDER 1            
1 41787U 16059E   26170.93178020  .00000403  00000+0  78648-4 0  9997
2 41787  97.8166 170.0842 0028007 194.6747 165.3648 14.67665593520117
SCATSAT 1               
1 41790U 16059H   26170.78321525  .00000824  00000+0  11508-3 0  9992
2 41790  98.1190 234.5762 0053471 238.9260 120.6697 14.79530063101977
GOKTURK 1A              
1 41875U 16073A   26170.98189598  .00000381  00000+0  83841-4 0  9994
2 41875  98.1245  65.6127 0001422  76.4847 283.6513 14.62776707509232
RESOURCESAT-2A          
1 41877U 16074A   26170.95646341  .00000157  00000+0  91573-4 0  9990
2 41877  98.7525 244.4385 0003290  79.6989 280.4559 14.21617587494694
CARTOSAT-2D             
1 41948U 17008A   26170.92477823  .00001424  00000+0  70823-4 0  9994
2 41948  97.4099 230.1800 0004012 222.6955 137.3968 15.19218601517990
SENTINEL-2B             
1 42063U 17013A   26170.93476509 -.00000116  00000+0 -27483-4 0  9993
2 42063  98.5688 245.6707 0001170  87.1725 272.9592 14.30817039485033
CARTOSAT-2E             
1 42767U 17036C   26170.94254282  .00002387  00000+0  11643-3 0  9992
2 42767  97.4269 230.6997 0002189 306.4426  53.6607 15.19270118498560
FORMOSAT-5              
1 42920U 17049A   26170.94936145  .00000104  00000+0  37384-4 0  9998
2 42920  98.2254 246.1978 0012642  76.7144 283.5461 14.50899686467079
SENTINEL-5P             
1 42969U 17064A   26170.66889081  .00000038  00000+0  38842-4 0  9999
2 42969  98.7925 112.7826 0000992  87.0975 273.0314 14.19519301449916
SKYSAT-C11              
1 42987U 17068A   26170.88337973  .00025335  00000+0  33893-3 0  9992
2 42987  97.4362 319.8314 0000496 100.1711 259.9601 15.58015103483660
SKYSAT-C10              
1 42988U 17068B   26170.83528243  .00007485  00000+0  22516-3 0  9996
2 42988  97.4514 307.7080 0001103  99.9249 260.2118 15.34675476482760
SKYSAT-C9               
1 42989U 17068C   26170.83537602  .00011082  00000+0  26495-3 0  9994
2 42989  97.4434 308.6682 0009470 124.6971 235.5169 15.41617674483163
SKYSAT-C8               
1 42990U 17068D   26170.34688538  .00008658  00000+0  24141-3 0  9998
2 42990  97.4531 307.0228 0001428  94.6460 265.4947 15.37011151482647
SKYSAT-C7               
1 42991U 17068E   26170.34057334  .00009071  00000+0  25300-3 0  9991
2 42991  97.4542 308.0060 0007200 100.6043 259.6012 15.36962434482707
SKYSAT-C6               
1 42992U 17068F   26170.62518389  .00007529  00000+0  22948-3 0  9996
2 42992  97.4577 308.2553 0004535 131.3931 228.7702 15.34245695482692
CARTOSAT-2F             
1 43111U 18004A   26170.97479212  .00002789  00000+0  13566-3 0  9999
2 43111  97.4782 230.5822 0001010 195.2519 164.8686 15.19230106467751
GAOFEN-1 02             
1 43259U 18031A   26170.94154774  .00000611  00000+0  95258-4 0  9993
2 43259  98.0522 233.4612 0003620  27.4126 332.7274 14.76459800443109
GAOFEN-1 03             
1 43260U 18031B   26170.91967436  .00000519  00000+0  81969-4 0  9990
2 43260  98.0517 233.2975 0003684  73.5437 286.6177 14.76472254443097
GAOFEN-1 04             
1 43262U 18031D   26170.96320566  .00000466  00000+0  74416-4 0  9994
2 43262  98.0523 233.5321 0002169  74.6952 285.4497 14.76437491443091
SENTINEL-3B             
1 43437U 18039A   26170.78451659  .00000070  00000+0  46883-4 0  9992
2 43437  98.6248 238.2796 0000728  93.3336 266.7928 14.26735362424493
GAOFEN-5 01             
1 43461U 18043A   26170.87043693  .00000246  00000+0  60681-4 0  9996
2 43461  98.4569 142.5129 0003026  79.1483 281.0057 14.60607080432080
GAOFEN-6                
1 43484U 18048A   26170.91724675 -.00000282  00000+0 -33059-4 0  9998
2 43484  97.9705 233.6295 0011818 157.0509 203.1232 14.76598470433798
